start=new Date('2023-05-14T00:00:00.000Z').valueOf();
sats=[{"EPOCH":"2023-05-13T04:15:22.167360","MEAN_MOTION":"15.06410543","DECAY_DATE":null,"COUNTRY_CODE":"US","BSTAR":"0.00075049000000","OBJECT_TYPE":"PAYLOAD","OBJECT_ID":"2020-019A","ELEMENT_SET_NO":"999","LAUNCH_DATE":"2020-03-18","REV_AT_EPOCH":"17466","SEMIMAJOR_AXIS":"6925.316","MEAN_MOTION_DOT":"0.00010918","TLE_LINE2":"2 45360  53.0538  87.2536 0001277 109.8948 250.2179 15.06410543174660","CLASSIFICATION_TYPE":"U","TIME_SYSTEM":"UTC","NORAD_CAT_ID":"45360","OBJECT_NAME":"STARLINK-1279","TLE_LINE1":"1 45360U 20019A   23133.17733990  .00010918  00000-0  75049-3 0  9998","ECCENTRICITY":"0.00012770","FILE":"3906915","RCS_SIZE":"LARGE","CENTER_NAME":"EARTH","PERIOD":"95.591","MEAN_MOTION_DDOT":"0.0000000000000","SITE":"AFETR","RA_OF_ASC_NODE":"87.2536","MEAN_ANOMALY":"250.2179","REF_FRAME":"TEME","MEAN_ELEMENT_THEORY":"SGP4","APOAPSIS":"548.066","INCLINATION":"53.0538","GP_ID":"231744342","EPHEMERIS_TYPE":"0","PERIAPSIS":"546.297","ARG_OF_PERICENTER":"109.8948"},{"COUNTRY_CODE":"US","OBJECT_ID":"2020-019B","BSTAR":"0.00060703000000","OBJECT_TYPE":"PAYLOAD","MEAN_MOTION":"15.06392062","EPOCH":"2023-05-13T15:06:54.465120","DECAY_DATE":null,"TLE_LINE2":"2 45361  53.0522  95.2232 0000860  91.1246 268.9842 15.06392062174609","CLASSIFICATION_TYPE":"U","ELEMENT_SET_NO":"999","LAUNCH_DATE":"2020-03-18","REV_AT_EPOCH":"17460","MEAN_MOTION_DOT":"0.00008770","SEMIMAJOR_AXIS":"6925.373","CENTER_NAME":"EARTH","PERIOD":"95.593","ECCENTRICITY":"0.00008600","FILE":"3907148","RCS_SIZE":"LARGE","MEAN_ANOMALY":"268.9842","REF_FRAME":"TEME","MEAN_MOTION_DDOT":"0.0000000000000","SITE":"AFETR","RA_OF_ASC_NODE":"95.2232","NORAD_CAT_ID":"45361","TIME_SYSTEM":"UTC","TLE_LINE1":"1 45361U 20019B   23133.62979705  .00008770  00000-0  60703-3 0  9999","OBJECT_NAME":"STARLINK-1301","EPHEMERIS_TYPE":"0","PERIAPSIS":"546.642","ARG_OF_PERICENTER":"91.1246","MEAN_ELEMENT_THEORY":"SGP4","APOAPSIS":"547.833","INCLINATION":"53.0522","GP_ID":"231775322"},{"TLE_LINE2":"2 45362  53.0544 115.0133 0001302  84.8801 275.2336 15.06394938174325","CLASSIFICATION_TYPE":"U","MEAN_MOTION_DOT":"-0.00000749","SEMIMAJOR_AXIS":"6925.364","REV_AT_EPOCH":"17432","LAUNCH_DATE":"2020-03-18","ELEMENT_SET_NO":"999","OBJECT_ID":"2020-019C","OBJECT_TYPE":"PAYLOAD","BSTAR":"-0.00003137700000","COUNTRY_CODE":"US","DECAY_DATE":null,"MEAN_MOTION":"15.06394938","EPOCH":"2023-05-13T16:13:14.519136","ARG_OF_PERICENTER":"84.8801","PERIAPSIS":"546.327","EPHEMERIS_TYPE":"0","APOAPSIS":"548.131","GP_ID":"231775565","INCLINATION":"53.0544","MEAN_ELEMENT_THEORY":"SGP4","MEAN_ANOMALY":"275.2336","REF_FRAME":"TEME","RA_OF_ASC_NODE":"115.0133","SITE":"AFETR","MEAN_MOTION_DDOT":"0.0000000000000","CENTER_NAME":"EARTH","PERIOD":"95.592","ECCENTRICITY":"0.00013020","RCS_SIZE":"LARGE","FILE":"3907148","TLE_LINE1":"1 45362U 20019C   23133.67586249 -.00000749  00000-0 -31377-4 0  9998","OBJECT_NAME":"STARLINK-1306","NORAD_CAT_ID":"45362","TIME_SYSTEM":"UTC"},{"DECAY_DATE":null,"EPOCH":"2023-05-13T03:52:47.839584","MEAN_MOTION":"15.16016946","OBJECT_TYPE":"PAYLOAD","BSTAR":"0.00179750000000","OBJECT_ID":"2020-019E","COUNTRY_CODE":"US","SEMIMAJOR_AXIS":"6896.030","MEAN_MOTION_DOT":"0.00034822","LAUNCH_DATE":"2020-03-18","REV_AT_EPOCH":"17473","ELEMENT_SET_NO":"999","TLE_LINE2":"2 45364  53.0546  82.3254 0004787  70.6048 289.5463 15.16016946174730","CLASSIFICATION_TYPE":"U","OBJECT_NAME":"STARLINK-1313","TLE_LINE1":"1 45364U 20019E   23133.16166481  .00034822  00000-0  17975-2 0  9999","TIME_SYSTEM":"UTC","NORAD_CAT_ID":"45364","SITE":"AFETR","RA_OF_ASC_NODE":"82.3254","MEAN_MOTION_DDOT":"0.0000000000000","MEAN_ANOMALY":"289.5463","REF_FRAME":"TEME","ECCENTRICITY":"0.00047870","RCS_SIZE":"LARGE","FILE":"3906915","CENTER_NAME":"EARTH","PERIOD":"94.986","APOAPSIS":"521.196","GP_ID":"231744091","INCLINATION":"53.0546","MEAN_ELEMENT_THEORY":"SGP4","ARG_OF_PERICENTER":"70.6048","EPHEMERIS_TYPE":"0","PERIAPSIS":"514.594"},{"CLASSIFICATION_TYPE":"U","TLE_LINE2":"2 45365  52.9949  86.8815 0003404  23.1379 336.9768 15.20782121174604","REV_AT_EPOCH":"17460","LAUNCH_DATE":"2020-03-18","ELEMENT_SET_NO":"999","SEMIMAJOR_AXIS":"6881.617","MEAN_MOTION_DOT":"0.00058083","COUNTRY_CODE":"US","OBJECT_TYPE":"PAYLOAD","BSTAR":"0.00259660000000","OBJECT_ID":"2020-019F","EPOCH":"2023-05-13T04:00:48.364416","MEAN_MOTION":"15.20782121","DECAY_DATE":null,"EPHEMERIS_TYPE":"0","PERIAPSIS":"501.140","ARG_OF_PERICENTER":"23.1379","MEAN_ELEMENT_THEORY":"SGP4","GP_ID":"231744843","INCLINATION":"52.9949","APOAPSIS":"505.825","FILE":"3906915","RCS_SIZE":"LARGE","ECCENTRICITY":"0.00034040","CENTER_NAME":"EARTH","PERIOD":"94.688","SITE":"AFETR","RA_OF_ASC_NODE":"86.8815","MEAN_MOTION_DDOT":"0.0000000000000","REF_FRAME":"TEME","MEAN_ANOMALY":"336.9768","TIME_SYSTEM":"UTC","NORAD_CAT_ID":"45365","OBJECT_NAME":"STARLINK-1317","TLE_LINE1":"1 45365U 20019F   23133.16722644  .00058083  00000-0  25966-2 0  9993"},{"MEAN_ELEMENT_THEORY":"SGP4","APOAPSIS":"548.132","GP_ID":"231775823","INCLINATION":"53.0518","PERIAPSIS":"546.301","EPHEMERIS_TYPE":"0","ARG_OF_PERICENTER":"84.3101","TIME_SYSTEM":"UTC","NORAD_CAT_ID":"45366","OBJECT_NAME":"STARLINK-1262","TLE_LINE1":"1 45366U 20019G   23133.66111458  .00001730  00000-0  13504-3 0  9997","ECCENTRICITY":"0.00013220","FILE":"3907148","RCS_SIZE":"LARGE","PERIOD":"95.592","CENTER_NAME":"EARTH","MEAN_MOTION_DDOT":"0.0000000000000","SITE":"AFETR","RA_OF_ASC_NODE":"115.0842","REF_FRAME":"TEME","MEAN_ANOMALY":"275.8039","REV_AT_EPOCH":"17433","LAUNCH_DATE":"2020-03-18","ELEMENT_SET_NO":"999","SEMIMAJOR_AXIS":"6925.351","MEAN_MOTION_DOT":"0.00001730","TLE_LINE2":"2 45366  53.0518 115.0842 0001322  84.3101 275.8039 15.06399176174333","CLASSIFICATION_TYPE":"U","EPOCH":"2023-05-13T15:52:00.299712","MEAN_MOTION":"15.06399176","DECAY_DATE":null,"COUNTRY_CODE":"US","BSTAR":"0.00013504000000","OBJECT_TYPE":"PAYLOAD","OBJECT_ID":"2020-019G"},{"MEAN_MOTION_DOT":"0.00000328","SEMIMAJOR_AXIS":"6925.364","REV_AT_EPOCH":"17433","LAUNCH_DATE":"2020-03-18","ELEMENT_SET_NO":"999","TLE_LINE2":"2 45367  53.0528 114.9851 0001168  97.9844 262.1278 15.06394951174335","CLASSIFICATION_TYPE":"U","DECAY_DATE":null,"MEAN_MOTION":"15.06394951","EPOCH":"2023-05-13T16:23:51.181728","OBJECT_ID":"2020-019H","OBJECT_TYPE":"PAYLOAD","BSTAR":"0.00004092800000","COUNTRY_CODE":"US","APOAPSIS":"548.038","GP_ID":"231776066","INCLINATION":"53.0528","MEAN_ELEMENT_THEORY":"SGP4","ARG_OF_PERICENTER":"97.9844","EPHEMERIS_TYPE":"0","PERIAPSIS":"546.420","TLE_LINE1":"1 45367U 20019H   23133.68323127  .00000328  00000-0  40928-4 0  9991","OBJECT_NAME":"STARLINK-1273","NORAD_CAT_ID":"45367","TIME_SYSTEM":"UTC","MEAN_ANOMALY":"262.1278","REF_FRAME":"TEME","SITE":"AFETR","MEAN_MOTION_DDOT":"0.0000000000000","RA_OF_ASC_NODE":"114.9851","PERIOD":"95.592","CENTER_NAME":"EARTH","ECCENTRICITY":"0.00011680","FILE":"3907148","RCS_SIZE":"LARGE"},{"DECAY_DATE":null,"EPOCH":"2023-05-13T15:41:23.596512","MEAN_MOTION":"15.06398911","BSTAR":"0.00011795000000","OBJECT_TYPE":"PAYLOAD","OBJECT_ID":"2020-019J","COUNTRY_CODE":"US","SEMIMAJOR_AXIS":"6925.352","MEAN_MOTION_DOT":"0.00001476","LAUNCH_DATE":"2020-03-18","REV_AT_EPOCH":"17433","ELEMENT_SET_NO":"999","TLE_LINE2":"2 45368  53.0530 115.1112 0001254  78.9316 281.1814 15.06398911174338","CLASSIFICATION_TYPE":"U","OBJECT_NAME":"STARLINK-1276","TLE_LINE1":"1 45368U 20019J   23133.65374533  .00001476  00000-0  11795-3 0  9990","TIME_SYSTEM":"UTC","NORAD_CAT_ID":"45368","SITE":"AFETR","RA_OF_ASC_NODE":"115.1112","MEAN_MOTION_DDOT":"0.0000000000000","REF_FRAME":"TEME","MEAN_ANOMALY":"281.1814","ECCENTRICITY":"0.00012540","RCS_SIZE":"LARGE","FILE":"3907148","PERIOD":"95.592","CENTER_NAME":"EARTH","APOAPSIS":"548.085","GP_ID":"231776825","INCLINATION":"53.0530","MEAN_ELEMENT_THEORY":"SGP4","ARG_OF_PERICENTER":"78.9316","PERIAPSIS":"546.348","EPHEMERIS_TYPE":"0"},{"TLE_LINE1":"1 45369U 20019K   23133.65280172 -.00000183  00000-0  65873-5 0  9999","OBJECT_NAME":"STARLINK-1277","NORAD_CAT_ID":"45369","TIME_SYSTEM":"UTC","MEAN_ANOMALY":"266.5915","REF_FRAME":"TEME","MEAN_MOTION_DDOT":"0.0000000000000","SITE":"AFETR","RA_OF_ASC_NODE":"115.1223","CENTER_NAME":"EARTH","PERIOD":"95.592","RCS_SIZE":"LARGE","FILE":"3907148","ECCENTRICITY":"0.00012910","GP_ID":"231777060","INCLINATION":"53.0538","APOAPSIS":"548.105","MEAN_ELEMENT_THEORY":"SGP4","ARG_OF_PERICENTER":"93.5221","EPHEMERIS_TYPE":"0","PERIAPSIS":"546.317","DECAY_DATE":null,"MEAN_MOTION":"15.06400692","EPOCH":"2023-05-13T15:40:02.068608","OBJECT_ID":"2020-019K","OBJECT_TYPE":"PAYLOAD","BSTAR":"0.00000658730000","COUNTRY_CODE":"US","MEAN_MOTION_DOT":"-0.00000183","SEMIMAJOR_AXIS":"6925.346","ELEMENT_SET_NO":"999","LAUNCH_DATE":"2020-03-18","REV_AT_EPOCH":"17433","CLASSIFICATION_TYPE":"U","TLE_LINE2":"2 45369  53.0538 115.1223 0001291  93.5221 266.5915 15.06400692174338"},{"TLE_LINE2":"2 45370  53.0547 114.5694 0001409  97.6587 262.4562 15.06393128174356","CLASSIFICATION_TYPE":"U","LAUNCH_DATE":"2020-03-18","REV_AT_EPOCH":"17435","ELEMENT_SET_NO":"999","SEMIMAJOR_AXIS":"6925.370","MEAN_MOTION_DOT":"0.00000786","COUNTRY_CODE":"US","BSTAR":"0.00007165600000","OBJECT_TYPE":"PAYLOAD","OBJECT_ID":"2020-019L","EPOCH":"2023-05-13T18:36:33.168096","MEAN_MOTION":"15.06393128","DECAY_DATE":null,"PERIAPSIS":"546.259","EPHEMERIS_TYPE":"0","ARG_OF_PERICENTER":"97.6587","MEAN_ELEMENT_THEORY":"SGP4","APOAPSIS":"548.210","INCLINATION":"53.0547","GP_ID":"231775323","ECCENTRICITY":"0.00014090","FILE":"3907148","RCS_SIZE":"LARGE","PERIOD":"95.593","CENTER_NAME":"EARTH","MEAN_MOTION_DDOT":"0.0000000000000","SITE":"AFETR","RA_OF_ASC_NODE":"114.5694","REF_FRAME":"TEME","MEAN_ANOMALY":"262.4562","TIME_SYSTEM":"UTC","NORAD_CAT_ID":"45370","OBJECT_NAME":"STARLINK-1281","TLE_LINE1":"1 45370U 20019L   23133.77538389  .00000786  00000-0  71656-4 0  9993"}];
